NORAD_CAT_ID,OBJECT_NAME,OBJECT_TYPE,EPOCH,MEAN_MOTION,ECCENTRICITY,INCLINATION,RA_OF_ASC_NODE,ARG_OF_PERICENTER,MEAN_ANOMALY,BSTAR,MEAN_MOTION_DOT,MEAN_MOTION_DDOT,TLE_LINE0,TLE_LINE1,TLE_LINE2,SEMIMAJOR_AXIS,PERIOD,APOGEE,PERIGEE,DECAYED
49410.0,STARLINK-3147,PAYLOAD,2022-02-17 22:00:00,15.08811278,0.0002325,53.2175,36.575,41.1466,287.5348,0.0025982,0.00041273,0.0,0 STARLINK-3147,1 49410U 21104C   22048.91667824  .00041273  00000-0  25982-2 0  9990,2 49410  53.2175  36.5750 0002325  41.1466 287.5348 15.08811278  3598,6917.968000000003,95.439,541.442,538.225,0.0
49410.0,STARLINK-3147,PAYLOAD,2022-02-18 06:00:00,15.08832632,0.0002534,53.2175,35.0804,38.901,301.3583,-0.00029615,-4.998e-05,0.0,0 STARLINK-3147,1 49410U 21104C   22049.25001157 -.00004998  00000-0 -29615-3 0  9992,2 49410  53.2175  35.0804 0002534  38.9010 301.3583 15.08832632 16219,6917.903,95.438,541.521,538.015,0.0
49410.0,STARLINK-3147,PAYLOAD,2022-02-18 14:00:01,15.0885138,0.0002484,53.2172,33.5835,38.442,313.3933,-0.0019552,-0.00031282,0.0,0 STARLINK-3147,1 49410U 21104C   22049.58334491 -.00031282  00000-0 -19552-2 0  9992,2 49410  53.2172  33.5835 0002484  38.4420 313.3933 15.08851380  3597,6917.846,95.437,541.429,537.992,0.0
49410.0,STARLINK-3147,PAYLOAD,2022-02-18 22:00:00,15.0877046,0.0002543,53.2174,32.0741,38.1032,325.2914,0.0067336,0.00108324,0.0,0 STARLINK-3147,1 49410U 21104C   22049.91667824  .00108324  00000-0  67336-2 0  9991,2 49410  53.2174  32.0741 0002543  38.1032 325.2914 15.08770460 16326,6918.093000000003,95.442,541.717,538.1990000000002,0.0
49410.0,STARLINK-3147,PAYLOAD,2022-02-19 12:00:02,15.08857347,0.0002557,53.217,29.469,39.9557,253.8337,-0.00053021,-8.721e-05,0.0,0 STARLINK-3147,1 49410U 21104C   22050.50002315 -.00008721  00000-0 -53021-3 0  9995,2 49410  53.2170  29.4690 0002557  39.9557 253.8337 15.08857347 16405,6917.8269999999975,95.436,541.461,537.923,0.0
49410.0,STARLINK-3147,PAYLOAD,2022-02-19 14:00:01,15.08866884,0.0002522,53.2171,29.0944,41.2372,345.3897,-0.0018808,-0.0003012,0.0,0 STARLINK-3147,1 49410U 21104C   22050.58334491 -.00030120  00000-0 -18808-2 0  9997,2 49410  53.2171  29.0944 0002522  41.2372 345.3897 15.08866884  3597,6917.7980000000025,95.436,541.408,537.919,0.0
49410.0,STARLINK-3147,PAYLOAD,2022-02-19 22:00:00,15.08859571,0.0002385,53.2173,27.5972,45.1442,353.0999,-0.0010028,-0.00016222,0.0,0 STARLINK-3147,1 49410U 21104C   22050.91667824 -.00016222  00000-0 -10028-2 0  9996,2 49410  53.2173  27.5972 0002385  45.1442 353.0999 15.08859571  3584,6917.821,95.436,541.335,538.036,0.0
49410.0,STARLINK-3147,PAYLOAD,2022-02-20 14:00:01,15.08858037,0.0002452,53.217,24.6053,40.2143,21.2334,-0.0043266,-0.00068529,0.0,0 STARLINK-3147,1 49410U 21104C   22051.58334491 -.00068529  00000-0 -43266-2 0  9998,2 49410  53.2170  24.6053 0002452  40.2143  21.2334 15.08858037 16574,6917.825,95.436,541.387,537.994,0.0
49410.0,STARLINK-3147,PAYLOAD,2022-02-20 22:00:00,15.08815455,0.0002355,53.2173,23.1083,43.8048,29.227,0.0015248,0.00024047,0.0,0 STARLINK-3147,1 49410U 21104C   22051.91667824  .00024047  00000-0  15248-2 0  9998,2 49410  53.2173  23.1083 0002355  43.8048  29.2270 15.08815455  3579,6917.955,95.439,541.45,538.191,0.0
49410.0,STARLINK-3147,PAYLOAD,2022-02-21 06:00:00,15.08818424,0.0002576,53.2172,21.6138,40.9002,43.7081,0.00070616,0.00010962,0.0,0 STARLINK-3147,1 49410U 21104C   22052.25001157  .00010962  00000-0  70616-3 0  9999,2 49410  53.2172  21.6138 0002576  40.9002  43.7081 15.08818424 16670,6917.946,95.439,541.5930000000002,538.029,0.0
49410.0,STARLINK-3147,PAYLOAD,2022-02-21 22:00:00,15.08844914,0.0002437,53.2174,18.6193,44.5975,63.1678,-0.0018921,-0.00030281,0.0,0 STARLINK-3147,1 49410U 21104C   22052.91667824 -.00030281  00000-0 -18921-2 0  9999,2 49410  53.2174  18.6193 0002437  44.5975  63.1678 15.08844914  3604,6917.865,95.437,541.4159999999998,538.044,0.0
49410.0,STARLINK-3147,PAYLOAD,2022-02-22 04:00:00,15.08821244,0.000258,53.2173,17.4987,41.0438,345.4136,-0.0011571,-0.00018648,0.0,0 STARLINK-3147,1 49410U 21104C   22053.16667824 -.00018648  00000-0 -11571-2 0  9994,2 49410  53.2173  17.4987 0002580  41.0438 345.4136 15.08821244 16819,6917.938,95.439,541.5880000000002,538.018,0.0
49410.0,STARLINK-3147,PAYLOAD,2022-02-22 14:00:01,15.08833944,0.0002527,53.2175,15.6275,41.484,89.4303,-0.0013985999999999,-0.00022476,0.0,0 STARLINK-3147,1 49410U 21104C   22053.58334491 -.00022476  00000-0 -13986-2 0  9997,2 49410  53.2175  15.6275 0002527  41.4840  89.4303 15.08833944  3584,6917.899,95.438,541.512,538.016,0.0
49410.0,STARLINK-3147,PAYLOAD,2022-02-22 22:00:00,15.08834372,0.0002508,53.2178,14.1305,45.5915,96.9009,0.00069642,0.00010811,0.0,0 STARLINK-3147,1 49410U 21104C   22053.91667824  .00010811  00000-0  69642-3 0  9992,2 49410  53.2178  14.1305 0002508  45.5915  96.9009 15.08834372 16926,6917.898,95.438,541.498,538.028,0.0
49410.0,STARLINK-3147,PAYLOAD,2022-02-23 14:00:01,15.08860763,0.000259,53.2178,11.1383,43.7034,121.9802,-0.0014116,-0.00022698,0.0,0 STARLINK-3147,1 49410U 21104C   22054.58334491 -.00022698  00000-0 -14116-2 0  9990,2 49410  53.2178  11.1383 0002590  43.7034 121.9802 15.08860763  3606,6917.816999999999,95.436,541.474,537.89,0.0
49410.0,STARLINK-3147,PAYLOAD,2022-02-23 22:00:00,15.08857795,0.0002538,53.2182,9.6415,46.3054,130.9837,-0.001725,-0.00027652,0.0,0 STARLINK-3147,1 49410U 21104C   22054.91667824 -.00027652  00000-0 -17250-2 0  9993,2 49410  53.2182   9.6415 0002538  46.3054 130.9837 15.08857795  3599,6917.826,95.436,541.447,537.935,0.0
49410.0,STARLINK-3147,PAYLOAD,2022-02-24 06:00:00,15.08817435,0.000272,53.2181,8.1468,42.0566,146.8386,0.0022658,0.00035935,0.0,0 STARLINK-3147,1 49410U 21104C   22055.25001157  .00035935  00000-0  22658-2 0  9991,2 49410  53.2181   8.1468 0002720  42.0566 146.8386 15.08817435 17120,6917.949000000001,95.439,541.696,537.933,0.0
49410.0,STARLINK-3147,PAYLOAD,2022-02-24 14:00:01,15.0885223,0.0002555,53.218,6.649,43.9986,156.4815,-0.0011970999999999,-0.00019297,0.0,0 STARLINK-3147,1 49410U 21104C   22055.58334491 -.00019297  00000-0 -11971-2 0  9998,2 49410  53.2180   6.6490 0002555  43.9986 156.4815 15.08852230  3580,6917.843000000003,95.437,541.476,537.94,0.0
49410.0,STARLINK-3147,PAYLOAD,2022-02-24 22:00:00,15.08855133,0.0002489,53.2183,5.1525,46.5472,165.5339,-0.0019988,-0.00031973,0.0,0 STARLINK-3147,1 49410U 21104C   22055.91667824 -.00031973  00000-0 -19988-2 0  9995,2 49410  53.2183   5.1525 0002489  46.5472 165.5339 15.08855133  3588,6917.834,95.437,541.4209999999998,537.977,0.0
49410.0,STARLINK-3147,PAYLOAD,2022-02-25 00:00:00,15.08850173,0.0002526,53.2182,4.7788,45.0215,259.962,-0.0020789,-0.00033233,0.0,0 STARLINK-3147,1 49410U 21104C   22056.00001157 -.00033233  00000-0 -20789-2 0  9999,2 49410  53.2182   4.7788 0002526  45.0215 259.9620 15.08850173 17231,6917.849,95.437,541.462,537.967,0.0
49410.0,STARLINK-3147,PAYLOAD,2022-02-25 14:00:01,15.08838334,0.0002493,53.218,2.1597,44.6444,190.6155,-0.00038046,-6.338e-05,0.0,0 STARLINK-3147,1 49410U 21104C   22056.58334491 -.00006338  00000-0 -38046-3 0  9994,2 49410  53.2180   2.1597 0002493  44.6444 190.6155 15.08838334 17320,6917.885,95.438,541.475,538.026,0.0
49410.0,STARLINK-3147,PAYLOAD,2022-02-25 22:00:00,15.08864463,0.0002438,53.2181,0.6635,47.1257,199.7177,-0.003415,-0.00054268,0.0,0 STARLINK-3147,1 49410U 21104C   22056.91667824 -.00054268  00000-0 -34150-2 0  9996,2 49410  53.2181   0.6635 0002438  47.1257 199.7177 15.08864463  3596,6917.806,95.436,541.357,537.984,0.0
49410.0,STARLINK-3147,PAYLOAD,2022-02-26 14:00:01,15.088237699999995,0.0002441,53.2177,357.6706,45.5627,224.4568,0.00012798,1.748e-05,0.0,0 STARLINK-3147,1 49410U 21104C   22057.58334491  .00001748  00000-0  12798-3 0  9999,2 49410  53.2177 357.6706 0002441  45.5627 224.4568 15.08823770  3598,6917.93,95.439,541.484,538.106,0.0
49410.0,STARLINK-3147,PAYLOAD,2022-02-26 22:00:00,15.08844495,0.000245,53.2178,356.1745,48.3549,233.2339,-0.00086669,-0.00014058,0.0,0 STARLINK-3147,1 49410U 21104C   22057.91667824 -.00014058  00000-0 -86669-3 0  9993,2 49410  53.2178 356.1745 0002450  48.3549 233.2339 15.08844495 17529,6917.8669999999975,95.437,541.427,538.0369999999998,0.0
49410.0,STARLINK-3147,PAYLOAD,2022-02-27 14:00:01,15.08832051,0.0002499,53.2174,353.1816,48.2392,256.5308,0.00062938,9.741e-05,0.0,0 STARLINK-3147,1 49410U 21104C   22058.58334491  .00009741  00000-0  62938-3 0  9992,2 49410  53.2174 353.1816 0002499  48.2392 256.5308 15.08832051  3602,6917.905,95.438,541.498,538.0409999999998,0.0
49410.0,STARLINK-3147,PAYLOAD,2022-02-27 22:00:00,15.08860091,0.0002537,53.2175,351.6856,50.4201,265.9363,-0.0011561,-0.00018652,0.0,0 STARLINK-3147,1 49410U 21104C   22058.91667824 -.00018652  00000-0 -11561-2 0  9996,2 49410  53.2175 351.6856 0002537  50.4201 265.9363 15.08860091 17679,6917.819,95.436,541.439,537.929,0.0
49410.0,STARLINK-3147,PAYLOAD,2022-02-28 14:00:01,15.08852889,0.0002513,53.2174,348.6925,49.3383,290.2563,-0.001234,-0.00019882,0.0,0 STARLINK-3147,1 49410U 21104C   22059.58334491 -.00019882  00000-0 -12340-2 0  9993,2 49410  53.2174 348.6925 0002513  49.3383 290.2563 15.08852889 17773,6917.840999999999,95.437,541.444,537.9680000000002,0.0
49410.0,STARLINK-3147,PAYLOAD,2022-02-28 22:00:00,15.08857759,0.0002549,53.2175,347.1966,50.0234,301.1678,-0.0011917,-0.00019214,0.0,0 STARLINK-3147,1 49410U 21104C   22059.91667824 -.00019214  00000-0 -11917-2 0  9997,2 49410  53.2175 347.1966 0002549  50.0234 301.1678 15.08857759  3580,6917.826,95.436,541.4540000000002,537.928,0.0
49410.0,STARLINK-3147,PAYLOAD,2022-03-01 14:00:01,15.08808029,0.0002486,53.2176,344.2035,48.4437,325.951,0.0018922,0.00029929,0.0,0 STARLINK-3147,1 49410U 21104C   22060.58334491  .00029929  00000-0  18922-2 0  9998,2 49410  53.2176 344.2035 0002486  48.4437 325.9510 15.08808029 17931,6917.978,95.44,541.563,538.123,0.0
